#aV2006  6 22  0  0   .00000000      96 DD+AD WGS84 FIT  NGA
## 1380 345600.00000000   900.00000000 53908  .0000000000000
+   29     1  2  3  4  5  6  7  8  9 10 11 13 14 15 16 17 18
+         19 20 21 22 23 24 25 26 27 28 29 30  0  0  0  0  0
+          0  0  0  0  0  0  0  0  0  0  0  0  0  0  0  0  0
+          0  0  0  0  0  0  0  0  0  0  0  0  0  0  0  0  0
+          0  0  0  0  0  0  0  0  0  0  0  0  0  0  0  0  0
++         0  0  0  0  0  0  0  0  0  0  0  0  0  0  0  0  0
++         0  0  0  0  0  0  0  0  0  0  0  0  0  0  0  0  0
++         0  0  0  0  0  0  0  0  0  0  0  0  0  0  0  0  0
++         0  0  0  0  0  0  0  0  0  0  0  0  0  0  0  0  0
++         0  0  0  0  0  0  0  0  0  0  0  0  0  0  0  0  0
%c cc cc ccc ccc cccc cccc cccc cccc ccccc ccccc ccccc ccccc
%c cc cc ccc ccc cccc cccc cccc cccc ccccc ccccc ccccc ccccc
%f  0.0000000  0.000000000  0.00000000000  0.000000000000000
%f  0.0000000  0.000000000  0.00000000000  0.000000000000000
%i    0    0    0    0      0      0      0      0         0
%i    0    0    0    0      0      0      0      0         0
/*      NGA, ST. LOUIS,MO.                                  
/*   EPHEMERIS COMPUTED FROM  3 DAYS OF DATA                
/* CCCCCCCCCCCCCCCCCCCCCCCCCCCCCCCCCCCCCCCCCCCCCCCCCCCCCCCCC
/* CCCCCCCCCCCCCCCCCCCCCCCCCCCCCCCCCCCCCCCCCCCCCCCCCCCCCCCCC
*  2006  6 22 12 45   .00000000                                                 
P  1 -14332.831894  15107.907648 -16261.928139     61.302141                    
V  1   3163.147282 -20784.478355 -21887.599294       .026890                    
P  2  22614.217906 -12424.375922   5544.471137      7.112720                    
V  2   8087.431337    541.354267 -30592.991588       .032941                    
P  3 -11682.667475  19555.246120  13234.179222     24.614844                    
V  3  -1820.736208 -17509.495146  24275.091467       .834021                    
P  4  25793.175404  -4918.098058  -5127.967776    259.268180                    
V  4  -5170.364982   4700.955955 -30394.995718       .082947                    
P  5  -6775.338425 -19810.189749 -16639.108945    151.895454                    
V  5  18118.979250  10340.010335 -19761.017905       .406764                    
P  6  -8653.667008 -19913.717971  15447.161154    571.761569                    
V  6   5314.722482 -18802.272585 -21608.303300       .110245                    
P  7 -16138.728628   2538.318714  21300.212584    541.583803                    
V  7   2619.640505 -26214.616135   5069.571243       .002480                    
P  8  23553.980555   1469.473137  12438.926515    -69.877189                    
V  8 -14603.530656   6400.828684  26191.938009      -.014136                    
P  9   5075.573536 -17169.699646 -20084.744805     25.223412                    
V  9  23053.367859  -8031.874190  13333.534564       .014142                    
P 10  11207.036450  -9931.164298  21851.371210     85.433531                    
V 10  20917.172376  18504.468730  -2008.745776       .005782                    
P 11  -1792.990823  18315.645176 -19145.815732    334.957269                    
V 11 -22519.372971   9882.249960  11856.889710       .022806                    
P 13   6788.581397  19787.260797  16308.117611     71.416574                    
V 13  -5413.020750  20114.468616 -21972.924725       .029760                    
P 14 -14637.887845  -1201.567805 -22062.984520    -11.438088                    
V 14   5178.526649 -27619.066933  -1980.494119       .008011                    
P 15 -23823.589333  -2043.235099  11844.551699    632.813495                    
V 15  13988.689976  -6177.473602  26318.946453       .062413                    
P 16 -15482.578207   5872.821971  20877.958129     51.344788                    
V 16 -19425.859721 -17715.776181  -9351.374395       .026913                    
P 17  15036.343004   2487.090393 -21757.340978     99.258348                    
V 17  -4850.782902  27188.688100   -341.036785       .010061                    
P 18 -19335.335091 -18452.681813    664.587692   -240.305221                    
V 18   2322.006229  -1466.730526  31462.529365      -.014229                    
P 19  -7918.571235  25211.479912   2472.242363     -3.903239                    
V 19  -2143.023374  -3621.642019  31516.748823       .022423                    
P 20   9198.690265  20575.160864 -14170.160294    -25.088040                    
V 20 -15126.507052  -9690.956758 -24022.344898       .004935                    
P 21 -18029.366372  -8018.997683  18086.962143     37.144070                    
V 21  21161.704894  -8337.682481  16922.756157       .024157                    
P 22 -21926.638706  -9184.865929 -11709.499660    109.123937                    
V 22  -9282.627873 -12193.564793  26583.138279       .037774                    
P 23   -132.969575  25671.215312   6369.981564    139.256879                    
V 23  -4028.110929   7656.363667 -30639.238537      -.005184                    
P 24  22871.515945   2735.219407 -13225.887076     15.155450                    
V 24 -15718.407598   7000.355038 -25026.525850       .027985                    
P 25 -24103.022854  11331.874598     36.400608    326.424012                    
V 25   -844.577014  -2806.101870 -31531.098689       .755091                    
P 26   8213.992963 -24398.813576   4701.373230   -155.167434                    
V 26    993.940100   6906.936499  32036.885655      -.124667                    
P 27  16730.734292   7894.253805  19777.702969     54.579075                    
V 27 -21405.197462  10282.173627  14131.388307       .018326                    
P 28  22331.890135  12109.707008  -8041.188357     24.693190                    
V 28   6302.862818   8760.527400  29282.769496      -.007566                    
P 29   9937.670508 -22862.348692   8970.134679    622.287535                    
V 29     79.832803  11295.665254  29731.780695       .041456                    
P 30 -16740.592019 -19581.173331  -6998.562652      1.477327                    
V 30   8553.433304   2887.291609 -29622.094067       .011038                    
EOF
